[{"OBJECT_NAME":"STARLINK-5162","OBJECT_ID":"2022-141AD","EPOCH":"2026-02-16T13:38:02.271840","MEAN_MOTION":15.08840972,"ECCENTRICITY":0.0001406,"INCLINATION":53.217,"RA_OF_ASC_NODE":99.301,"ARG_OF_PERICENTER":90.0467,"MEAN_ANOMALY":270.0686,"EPHEMERIS_TYPE":0,"CLASSIFICATION_TYPE":"U","NORAD_CAT_ID":54184,"ELEMENT_SET_NO":999,"REV_AT_EPOCH":18266,"BSTAR":8.2893e-5,"MEAN_MOTION_DOT":1.032e-5,"MEAN_MOTION_DDOT":0},{"OBJECT_NAME":"STARLINK-5235","OBJECT_ID":"2022-141AE","EPOCH":"2026-02-17T02:30:15.319872","MEAN_MOTION":15.08840103,"ECCENTRICITY":0.0001038,"INCLINATION":53.2174,"RA_OF_ASC_NODE":96.2716,"ARG_OF_PERICENTER":73.987,"MEAN_ANOMALY":286.1236,"EPHEMERIS_TYPE":0,"CLASSIFICATION_TYPE":"U","NORAD_CAT_ID":54185,"ELEMENT_SET_NO":999,"REV_AT_EPOCH":18275,"BSTAR":9.0606e-5,"MEAN_MOTION_DOT":1.155e-5,"MEAN_MOTION_DDOT":0},{"OBJECT_NAME":"STARLINK-5240","OBJECT_ID":"2022-141AG","EPOCH":"2026-02-16T13:57:45.793728","MEAN_MOTION":15.08841744,"ECCENTRICITY":9.73e-5,"INCLINATION":53.2151,"RA_OF_ASC_NODE":98.7032,"ARG_OF_PERICENTER":85.6039,"MEAN_ANOMALY":274.5064,"EPHEMERIS_TYPE":0,"CLASSIFICATION_TYPE":"U","NORAD_CAT_ID":54187,"ELEMENT_SET_NO":999,"REV_AT_EPOCH":18267,"BSTAR":0.0002171,"MEAN_MOTION_DOT":3.169e-5,"MEAN_MOTION_DDOT":0},{"OBJECT_NAME":"STARLINK-5238","OBJECT_ID":"2022-141AH","EPOCH":"2026-02-16T13:06:09.319680","MEAN_MOTION":15.08840734,"ECCENTRICITY":0.0001526,"INCLINATION":53.2172,"RA_OF_ASC_NODE":89.1985,"ARG_OF_PERICENTER":86.0288,"MEAN_ANOMALY":274.0879,"EPHEMERIS_TYPE":0,"CLASSIFICATION_TYPE":"U","NORAD_CAT_ID":54188,"ELEMENT_SET_NO":999,"REV_AT_EPOCH":18280,"BSTAR":3.2052e-5,"MEAN_MOTION_DOT":2.22e-6,"MEAN_MOTION_DDOT":0},{"OBJECT_NAME":"STARLINK-5281","OBJECT_ID":"2022-141AK","EPOCH":"2026-02-17T03:19:19.699680","MEAN_MOTION":15.08831394,"ECCENTRICITY":0.0001201,"INCLINATION":53.2165,"RA_OF_ASC_NODE":86.4987,"ARG_OF_PERICENTER":92.0507,"MEAN_ANOMALY":268.0623,"EPHEMERIS_TYPE":0,"CLASSIFICATION_TYPE":"U","NORAD_CAT_ID":54190,"ELEMENT_SET_NO":999,"REV_AT_EPOCH":18289,"BSTAR":2.4612e-5,"MEAN_MOTION_DOT":1.04e-6,"MEAN_MOTION_DDOT":0},{"OBJECT_NAME":"STARLINK-4619","OBJECT_ID":"2022-141AL","EPOCH":"2026-02-16T11:41:23.368128","MEAN_MOTION":15.08836466,"ECCENTRICITY":0.00013015,"INCLINATION":53.2166,"RA_OF_ASC_NODE":89.5426,"ARG_OF_PERICENTER":97.5874,"MEAN_ANOMALY":262.5266,"EPHEMERIS_TYPE":0,"CLASSIFICATION_TYPE":"U","NORAD_CAT_ID":54191,"ELEMENT_SET_NO":999,"REV_AT_EPOCH":18279,"BSTAR":4.6211663e-5,"MEAN_MOTION_DOT":4.48e-6,"MEAN_MOTION_DDOT":0},{"OBJECT_NAME":"STARLINK-5268","OBJECT_ID":"2022-141AM","EPOCH":"2026-02-16T10:32:24.827136","MEAN_MOTION":15.08828117,"ECCENTRICITY":0.00013459,"INCLINATION":53.2162,"RA_OF_ASC_NODE":89.2433,"ARG_OF_PERICENTER":86.6591,"MEAN_ANOMALY":273.4555,"EPHEMERIS_TYPE":0,"CLASSIFICATION_TYPE":"U","NORAD_CAT_ID":54192,"ELEMENT_SET_NO":999,"REV_AT_EPOCH":18279,"BSTAR":3.9845206e-5,"MEAN_MOTION_DOT":3.46e-6,"MEAN_MOTION_DDOT":0},{"OBJECT_NAME":"STARLINK-5263","OBJECT_ID":"2022-141AN","EPOCH":"2026-02-16T14:25:38.134848","MEAN_MOTION":15.08831631,"ECCENTRICITY":0.000112,"INCLINATION":53.2156,"RA_OF_ASC_NODE":88.8328,"ARG_OF_PERICENTER":85.1796,"MEAN_ANOMALY":274.9324,"EPHEMERIS_TYPE":0,"CLASSIFICATION_TYPE":"U","NORAD_CAT_ID":54193,"ELEMENT_SET_NO":999,"REV_AT_EPOCH":18281,"BSTAR":0.00030926,"MEAN_MOTION_DOT":4.636e-5,"MEAN_MOTION_DDOT":0},{"OBJECT_NAME":"STARLINK-5271","OBJECT_ID":"2022-141AP","EPOCH":"2026-02-16T09:28:51.375648","MEAN_MOTION":15.08839871,"ECCENTRICITY":0.00014567,"INCLINATION":53.2174,"RA_OF_ASC_NODE":89.6792,"ARG_OF_PERICENTER":100.4854,"MEAN_ANOMALY":259.6302,"EPHEMERIS_TYPE":0,"CLASSIFICATION_TYPE":"U","NORAD_CAT_ID":54194,"ELEMENT_SET_NO":999,"REV_AT_EPOCH":18278,"BSTAR":2.9726983e-5,"MEAN_MOTION_DOT":1.85e-6,"MEAN_MOTION_DDOT":0},{"OBJECT_NAME":"STARLINK-5258","OBJECT_ID":"2022-141AQ","EPOCH":"2026-02-16T12:55:33.099456","MEAN_MOTION":15.08840479,"ECCENTRICITY":0.000131,"INCLINATION":53.2163,"RA_OF_ASC_NODE":89.1531,"ARG_OF_PERICENTER":96.1917,"MEAN_ANOMALY":263.9224,"EPHEMERIS_TYPE":0,"CLASSIFICATION_TYPE":"U","NORAD_CAT_ID":54195,"ELEMENT_SET_NO":999,"REV_AT_EPOCH":18280,"BSTAR":-0.00012298,"MEAN_MOTION_DOT":-2.245e-5,"MEAN_MOTION_DDOT":0},{"OBJECT_NAME":"STARLINK-5237","OBJECT_ID":"2022-141AR","EPOCH":"2026-02-17T02:47:29.025888","MEAN_MOTION":15.08840021,"ECCENTRICITY":0.0001496,"INCLINATION":53.2176,"RA_OF_ASC_NODE":86.362,"ARG_OF_PERICENTER":98.3728,"MEAN_ANOMALY":261.7434,"EPHEMERIS_TYPE":0,"CLASSIFICATION_TYPE":"U","NORAD_CAT_ID":54196,"ELEMENT_SET_NO":999,"REV_AT_EPOCH":18289,"BSTAR":5.2006e-6,"MEAN_MOTION_DOT":-2.05e-6,"MEAN_MOTION_DDOT":0},{"OBJECT_NAME":"STARLINK-5246","OBJECT_ID":"2022-141AT","EPOCH":"2026-02-17T02:42:10.806912","MEAN_MOTION":15.08841677,"ECCENTRICITY":0.000144,"INCLINATION":53.2171,"RA_OF_ASC_NODE":86.3372,"ARG_OF_PERICENTER":95.0362,"MEAN_ANOMALY":265.0794,"EPHEMERIS_TYPE":0,"CLASSIFICATION_TYPE":"U","NORAD_CAT_ID":54198,"ELEMENT_SET_NO":999,"REV_AT_EPOCH":18289,"BSTAR":4.1199e-5,"MEAN_MOTION_DOT":3.68e-6,"MEAN_MOTION_DDOT":0},{"OBJECT_NAME":"STARLINK-5244","OBJECT_ID":"2022-141AU","EPOCH":"2026-02-17T02:52:47.448768","MEAN_MOTION":15.0883916,"ECCENTRICITY":0.0001509,"INCLINATION":53.2177,"RA_OF_ASC_NODE":86.3814,"ARG_OF_PERICENTER":99.7706,"MEAN_ANOMALY":260.3456,"EPHEMERIS_TYPE":0,"CLASSIFICATION_TYPE":"U","NORAD_CAT_ID":54199,"ELEMENT_SET_NO":999,"REV_AT_EPOCH":18289,"BSTAR":2.2441e-5,"MEAN_MOTION_DOT":6.9e-7,"MEAN_MOTION_DDOT":0},{"OBJECT_NAME":"STARLINK-5250","OBJECT_ID":"2022-141AV","EPOCH":"2026-02-17T02:31:34.189248","MEAN_MOTION":15.08837736,"ECCENTRICITY":0.0001425,"INCLINATION":53.2168,"RA_OF_ASC_NODE":86.2902,"ARG_OF_PERICENTER":87.3474,"MEAN_ANOMALY":272.7681,"EPHEMERIS_TYPE":0,"CLASSIFICATION_TYPE":"U","NORAD_CAT_ID":54200,"ELEMENT_SET_NO":999,"REV_AT_EPOCH":18289,"BSTAR":0.00013461,"MEAN_MOTION_DOT":1.855e-5,"MEAN_MOTION_DDOT":0},{"OBJECT_NAME":"STARLINK-5199","OBJECT_ID":"2022-141AW","EPOCH":"2026-02-17T03:03:24.176160","MEAN_MOTION":15.08837245,"ECCENTRICITY":0.0001367,"INCLINATION":53.2175,"RA_OF_ASC_NODE":86.4235,"ARG_OF_PERICENTER":82.7767,"MEAN_ANOMALY":277.338,"EPHEMERIS_TYPE":0,"CLASSIFICATION_TYPE":"U","NORAD_CAT_ID":54201,"ELEMENT_SET_NO":999,"REV_AT_EPOCH":18289,"BSTAR":3.3441e-5,"MEAN_MOTION_DOT":2.44e-6,"MEAN_MOTION_DDOT":0},{"OBJECT_NAME":"STARLINK-5205","OBJECT_ID":"2022-141AX","EPOCH":"2026-02-17T02:20:57.327072","MEAN_MOTION":15.08839888,"ECCENTRICITY":0.0001586,"INCLINATION":53.2173,"RA_OF_ASC_NODE":86.2468,"ARG_OF_PERICENTER":81.6702,"MEAN_ANOMALY":278.447,"EPHEMERIS_TYPE":0,"CLASSIFICATION_TYPE":"U","NORAD_CAT_ID":54202,"ELEMENT_SET_NO":999,"REV_AT_EPOCH":18289,"BSTAR":3.4591e-5,"MEAN_MOTION_DOT":2.63e-6,"MEAN_MOTION_DDOT":0},{"OBJECT_NAME":"STARLINK-5247","OBJECT_ID":"2022-141AY","EPOCH":"2026-02-16T12:18:23.867136","MEAN_MOTION":15.08851407,"ECCENTRICITY":0.0001379,"INCLINATION":53.2166,"RA_OF_ASC_NODE":88.9896,"ARG_OF_PERICENTER":91.5315,"MEAN_ANOMALY":268.5835,"EPHEMERIS_TYPE":0,"CLASSIFICATION_TYPE":"U","NORAD_CAT_ID":54203,"ELEMENT_SET_NO":999,"REV_AT_EPOCH":18280,"BSTAR":-5.0753e-5,"MEAN_MOTION_DOT":-1.096e-5,"MEAN_MOTION_DDOT":0}]
