STARLINK-5162           
1 54184U 22141AD  26047.56808185  .00001032  00000+0  82893-4 0  9991
2 54184  53.2170  99.3010 0001406  90.0467 270.0686 15.08840972182667
STARLINK-5235           
1 54185U 22141AE  26048.10434398  .00001155  00000+0  90606-4 0  9991
2 54185  53.2174  96.2716 0001038  73.9870 286.1236 15.08840103182755
STARLINK-5240           
1 54187U 22141AG  26047.58178002  .00003169  00000+0  21710-3 0  9997
2 54187  53.2151  98.7032 0000973  85.6039 274.5064 15.08841744182677
STARLINK-5238           
1 54188U 22141AH  26047.54594120  .00000222  00000+0  32052-4 0  9996
2 54188  53.2172  89.1985 0001526  86.0288 274.0879 15.08840734182800
STARLINK-5281           
1 54190U 22141AK  26048.13842245  .00000104  00000+0  24612-4 0  9991
2 54190  53.2165  86.4987 0001201  92.0507 268.0623 15.08831394182899
STARLINK-4619           
1 54191U 22141AL  26047.48707602  .00000448  00000+0  46212-4 0  9997
2 54191  53.2166  89.5426 0001301  97.5874 262.5266 15.08836466182797
STARLINK-5268           
1 54192U 22141AM  26047.43917624  .00000346  00000+0  39845-4 0  9991
2 54192  53.2162  89.2433 0001345  86.6591 273.4555 15.08828117182798
STARLINK-5263           
1 54193U 22141AN  26047.60113582  .00004636  00000+0  30926-3 0  9998
2 54193  53.2156  88.8328 0001120  85.1796 274.9324 15.08831631182810
STARLINK-5271           
1 54194U 22141AP  26047.39503907  .00000185  00000+0  29727-4 0  9992
2 54194  53.2174  89.6792 0001456 100.4854 259.6302 15.08839871182789
STARLINK-5258           
1 54195U 22141AQ  26047.53857754 -.00002245  00000+0 -12298-3 0  9996
2 54195  53.2163  89.1531 0001310  96.1917 263.9224 15.08840479182804
STARLINK-5237           
1 54196U 22141AR  26048.11630817 -.00000205  00000+0  52006-5 0  9997
2 54196  53.2176  86.3620 0001496  98.3728 261.7434 15.08840021182897
STARLINK-5246           
1 54198U 22141AT  26048.11262508  .00000368  00000+0  41199-4 0  9996
2 54198  53.2171  86.3372 0001440  95.0362 265.0794 15.08841677182899
STARLINK-5244           
1 54199U 22141AU  26048.11999362  .00000069  00000+0  22441-4 0  9999
2 54199  53.2177  86.3814 0001509  99.7706 260.3456 15.08839160182893
STARLINK-5250           
1 54200U 22141AV  26048.10525682  .00001855  00000+0  13461-3 0  9996
2 54200  53.2168  86.2902 0001425  87.3474 272.7681 15.08837736182899
STARLINK-5199           
1 54201U 22141AW  26048.12736315  .00000244  00000+0  33441-4 0  9998
2 54201  53.2175  86.4235 0001367  82.7767 277.3380 15.08837245182890
STARLINK-5205           
1 54202U 22141AX  26048.09788573  .00000263  00000+0  34591-4 0  9996
2 54202  53.2173  86.2468 0001586  81.6702 278.4470 15.08839888182892
STARLINK-5247           
1 54203U 22141AY  26047.51277624 -.00001096  00000+0 -50753-4 0  9998
2 54203  53.2166  88.9896 0001379  91.5315 268.5835 15.08851407182806
